GLOBALSTAR M094         
1 39074U 13005C   25242.13469675 -.00000084  00000+0  10932-3 0  9998
2 39074  51.9977 316.9717 0000735  96.5436 263.5514 12.62269319581714
GLOBALSTAR M096         
1 39075U 13005D   25242.06861736 -.00000096  00000+0  42481-4 0  9993
2 39075  52.0102   5.7414 0000922  86.4451 273.6522 12.62266202580625
GLOBALSTAR M078         
1 39076U 13005E   25242.04245459 -.00000112  00000+0 -48164-4 0  9994
2 39076  51.9872  90.2324 0001099  23.9751 336.1167 12.62259831579248
GLOBALSTAR M095         
1 39077U 13005F   25241.98923888 -.00000097  00000+0  38288-4 0  9993
2 39077  52.0074  87.5843 0001184  54.9883 305.1095 12.62259760579095
GLOBALSTAR M087         
1 52888U 22064A   25242.24125882 -.00000089  00000+0  80084-4 0  9993
2 52888  51.9972 228.2309 0000451  52.5793 307.5115 12.62301052154399
